COMMENT,ORIGINATOR,NORAD_CAT_ID,OBJECT_NAME,OBJECT_TYPE,CLASSIFICATION_TYPE,INTLDES,EPOCH,EPOCH_MICROSECONDS,MEAN_MOTION,ECCENTRICITY,INCLINATION,RA_OF_ASC_NODE,ARG_OF_PERICENTER,MEAN_ANOMALY,EPHEMERIS_TYPE,ELEMENT_SET_NO,REV_AT_EPOCH,BSTAR,MEAN_MOTION_DOT,MEAN_MOTION_DDOT,FILE,TLE_LINE0,TLE_LINE1,TLE_LINE2,OBJECT_ID,OBJECT_NUMBER,SEMIMAJOR_AXIS,PERIOD,APOGEE,PERIGEE,DECAYED
"GENERATED VIA SPACETRACK.ORG API","18 SPCS","55097","SPACEBEE-160","PAYLOAD","U","23001CS","2023-03-18 17:00:49","49856","15.16530462","0.001528","97.489","138.7836","318.3048","41.702","0","999","1137","0.00090934","0.00017743","0","3864479","0 SPACEBEE-160","1 55097U 23001CS  23077.70890104  .00017743  00000-0  90934-3 0  9990","2 55097  97.4890 138.7836 0015280 318.3048  41.7020 15.16530462 11373","2023-001CS","55097","6894.473","94.954","526.873","505.803","0"
"GENERATED VIA SPACETRACK.ORG API","18 SPCS","55097","SPACEBEE-160","PAYLOAD","U","23001CS","2023-03-19 10:25:57","809568","15.16553728","0.001485","97.4897","139.4992","316.2542","43.7513","0","999","1148","0.00087854","0.00017147","0","3865049","0 SPACEBEE-160","1 55097U 23001CS  23078.43469687  .00017147  00000-0  87854-3 0  9994","2 55097  97.4897 139.4992 0014850 316.2542  43.7513 15.16553728 11480","2023-001CS","55097","6894.403","94.952","526.506","506.029","0"
"GENERATED VIA SPACETRACK.ORG API","18 SPCS","55097","SPACEBEE-160","PAYLOAD","U","23001CS","2023-03-19 15:10:59","948256","15.16563893","0.0014831","97.4895","139.6946","315.6071","44.3972","0","999","1151","0.00095802","0.00018713","0","3865328","0 SPACEBEE-160","1 55097U 23001CS  23078.63263829  .00018713  00000-0  95802-3 0  9998","2 55097  97.4895 139.6946 0014831 315.6071  44.3972 15.16563893 11512","2023-001CS","55097","6894.372","94.951","526.462","506.012","0"
"GENERATED VIA SPACETRACK.ORG API","18 SPCS","55097","SPACEBEE-160","PAYLOAD","U","23001CS","2023-03-19 21:31:02","695872","15.16573243","0.0014793","97.4895","139.9552","314.6401","45.3625","0","999","1155","0.00093516","0.00018269","0","3865354","0 SPACEBEE-160","1 55097U 23001CS  23078.89655898  .00018269  00000-0  93516-3 0  9993","2 55097  97.4895 139.9552 0014793 314.6401  45.3625 15.16573243 11551","2023-001CS","55097","6894.343","94.951","526.407","506.010","0"
"GENERATED VIA SPACETRACK.ORG API","18 SPCS","55097","SPACEBEE-160","PAYLOAD","U","23001CS","2023-03-20 10:11:07","740960","15.16593426","0.0014737","97.4893","140.4764","312.7076","47.2915","0","999","1163","0.00095289","0.00018628","0","3865912","0 SPACEBEE-160","1 55097U 23001CS  23079.42439515  .00018628  00000-0  95289-3 0  9997","2 55097  97.4893 140.4764 0014737 312.7076  47.2915 15.16593426 11633","2023-001CS","55097","6894.282","94.950","526.307","505.987","0"
"GENERATED VIA SPACETRACK.ORG API","18 SPCS","55097","SPACEBEE-160","PAYLOAD","U","23001CS","2023-03-20 16:31:10","25472","15.16604444","0.0014714","97.4892","140.737","311.7173","48.28","0","999","1167","0.00097024","0.00018975","0","3866105","0 SPACEBEE-160","1 55097U 23001CS  23079.68831048  .00018975  00000-0  97024-3 0  9996","2 55097  97.4892 140.7370 0014714 311.7173  48.2800 15.16604444 11671","2023-001CS","55097","6894.249","94.949","526.258","505.970","0"
"GENERATED VIA SPACETRACK.ORG API","18 SPCS","55097","SPACEBEE-160","PAYLOAD","U","23001CS","2023-03-20 16:31:10","25472","15.16604444","0.0014714","97.4892","140.737","311.7173","48.28","0","999","1167","0.00097024","0.00018975","0","3866115","0 SPACEBEE-160","1 55097U 23001CS  23079.68831048  .00018975  00000-0  97024-3 0  9996","2 55097  97.4892 140.7370 0014714 311.7173  48.2800 15.16604444 11671","2023-001CS","55097","6894.249","94.949","526.258","505.970","0"
"GENERATED VIA SPACETRACK.ORG API","18 SPCS","55097","SPACEBEE-160","PAYLOAD","U","23001CS","2023-03-21 09:56:15","456192","15.16633426","0.0014684","97.4885","141.4537","308.8877","51.1045","0","999","1178","0.00097871","0.00019157","0","3866730","0 SPACEBEE-160","1 55097U 23001CS  23080.41406778  .00019157  00000-0  97871-3 0  9990","2 55097  97.4885 141.4537 0014684 308.8877  51.1045 15.16633426 11788","2023-001CS","55097","6894.161","94.947","526.149","505.903","0"
"GENERATED VIA SPACETRACK.ORG API","18 SPCS","55097","SPACEBEE-160","PAYLOAD","U","23001CS","2023-03-22 03:21:19","705824","15.16663077","0.0014676","97.4878","142.1702","306.0237","53.9635","0","999","1189","0.00097875","0.00019174","0","3867300","0 SPACEBEE-160","1 55097U 23001CS  23081.13981141  .00019174  00000-0  97875-3 0  9995","2 55097  97.4878 142.1702 0014676 306.0237  53.9635 15.16663077 11895","2023-001CS","55097","6894.071","94.945","526.054","505.818","0"
"GENERATED VIA SPACETRACK.ORG API","18 SPCS","55097","SPACEBEE-160","PAYLOAD","U","23001CS","2023-03-22 16:01:22","23264","15.16686054","0.0014709","97.4873","142.6914","303.6664","56.3166","0","999","1197","0.0010527","0.00020646","0","3868201","0 SPACEBEE-160","1 55097U 23001CS  23081.66761601  .00020646  00000-0  10527-2 0  9994","2 55097  97.4873 142.6914 0014709 303.6664  56.3166 15.16686054 11979","2023-001CS","55097","6894.002","94.944","526.007","505.726","0"
"GENERATED VIA SPACETRACK.ORG API","18 SPCS","55097","SPACEBEE-160","PAYLOAD","U","23001CS","2023-03-23 03:06:23","489856","15.16704909","0.0014732","97.487","143.1476","302.0348","57.9453","0","999","1204","0.00099112","0.00019442","0","3868494","0 SPACEBEE-160","1 55097U 23001CS  23082.12943854  .00019442  00000-0  99112-3 0  9998","2 55097  97.4870 143.1476 0014732 302.0348  57.9453 15.16704909 12048","2023-001CS","55097","6893.944","94.943","525.966","505.653","0"
"GENERATED VIA SPACETRACK.ORG API","18 SPCS","55097","SPACEBEE-160","PAYLOAD","U","23001CS","2023-03-23 17:21:24","683904","15.16731136","0.0014714","97.4871","143.7339","299.8171","60.1599","0","999","1213","0.0011355","0.00022309","0","3868778","0 SPACEBEE-160","1 55097U 23001CS  23082.72320236  .00022309  00000-0  11355-2 0  9995","2 55097  97.4871 143.7339 0014714 299.8171  60.1599 15.16731136 12139","2023-001CS","55097","6893.865","94.941","525.874","505.586","0"
"GENERATED VIA SPACETRACK.ORG API","18 SPCS","55097","SPACEBEE-160","PAYLOAD","U","23001CS","2023-03-23 17:21:24","683904","15.16731136","0.0014714","97.4871","143.7339","299.8171","60.1599","0","999","1213","0.0011355","0.00022309","0","3868816","0 SPACEBEE-160","1 55097U 23001CS  23082.72320236  .00022309  00000-0  11355-2 0  9995","2 55097  97.4871 143.7339 0014714 299.8171  60.1599 15.16731136 12139","2023-001CS","55097","6893.865","94.941","525.874","505.586","0"
"GENERATED VIA SPACETRACK.ORG API","18 SPCS","55097","SPACEBEE-160","PAYLOAD","U","23001CS","2023-03-24 02:51:24","687936","15.1676282","0.0014759","97.487","144.125","298.41","61.5645","0","999","1219","0.0016395","0.00032314","0","3869191","0 SPACEBEE-160","1 55097U 23001CS  23083.11903574  .00032314  00000-0  16395-2 0  9997","2 55097  97.4870 144.1250 0014759 298.4100  61.5645 15.16762820 12198","2023-001CS","55097","6893.769","94.939","525.808","505.459","0"
"GENERATED VIA SPACETRACK.ORG API","18 SPCS","55097","SPACEBEE-160","PAYLOAD","U","23001CS","2023-03-24 09:11:24","224928","15.16835508","0.0014709","97.487","144.3854","297.3059","62.6676","0","999","1223","0.0051317","0.00102458","0","3869608","0 SPACEBEE-160","1 55097U 23001CS  23083.38291927  .00102458  00000-0  51317-2 0  9998","2 55097  97.4870 144.3854 0014709 297.3059  62.6676 15.16835508 12231","2023-001CS","55097","6893.549","94.934","525.553","505.274","0"
"GENERATED VIA SPACETRACK.ORG API","18 SPCS","55097","SPACEBEE-160","PAYLOAD","U","23001CS","2023-03-24 09:11:24","224928","15.16835508","0.0014709","97.487","144.3854","297.3059","62.6676","0","999","1223","0.0051317","0.00102458","0","3869846","0 SPACEBEE-160","1 55097U 23001CS  23083.38291927  .00102458  00000-0  51317-2 0  9998","2 55097  97.4870 144.3854 0014709 297.3059  62.6676 15.16835508 12231","2023-001CS","55097","6893.549","94.934","525.553","505.274","0"
"GENERATED VIA SPACETRACK.ORG API","18 SPCS","55097","SPACEBEE-160","PAYLOAD","U","23001CS","2023-03-24 15:31:23","518272","15.16810716","0.0014675","97.487","144.6461","296.478","63.4947","0","999","1227","0.001865","0.00036839","0","3869829","0 SPACEBEE-160","1 55097U 23001CS  23083.64679998  .00036839  00000-0  18650-2 0  9997","2 55097  97.4870 144.6461 0014675 296.4780  63.4947 15.16810716 12279","2023-001CS","55097","6893.624","94.936","525.605","505.372","0"
"GENERATED VIA SPACETRACK.ORG API","18 SPCS","55097","SPACEBEE-160","PAYLOAD","U","23001CS","2023-03-24 17:06:23","292576","15.16815421","0.0014698","97.4868","144.7109","296.3405","63.6319","0","999","1228","0.0018301","0.0003615","0","3870109","0 SPACEBEE-160","1 55097U 23001CS  23083.71276959  .00036150  00000-0  18301-2 0  9994","2 55097  97.4868 144.7109 0014698 296.3405  63.6319 15.16815421 12288","2023-001CS","55097","6893.610","94.936","525.607","505.342","0"
"GENERATED VIA SPACETRACK.ORG API","18 SPCS","55097","SPACEBEE-160","PAYLOAD","U","23001CS","2023-03-25 04:11:21","451776","15.16837375","0.0014643","97.4868","145.1675","294.7223","65.2485","0","999","1235","0.0013574","0.00026778","0","3870764","0 SPACEBEE-160","1 55097U 23001CS  23084.17455384  .00026778  00000-0  13574-2 0  9998","2 55097  97.4868 145.1675 0014643 294.7223  65.2485 15.16837375 12353","2023-001CS","55097","6893.543","94.934","525.502","505.314","0"
"GENERATED VIA SPACETRACK.ORG API","18 SPCS","55097","SPACEBEE-160","PAYLOAD","U","23001CS","2023-03-25 21:36:17","310240","15.16869591","0.0014521","97.4869","145.8847","291.7611","68.2077","0","999","1246","0.0012103","0.0002388","0","3871104","0 SPACEBEE-160","1 55097U 23001CS  23084.90020035  .00023880  00000-0  12103-2 0  9998","2 55097  97.4869 145.8847 0014521 291.7611  68.2077 15.16869591 12462","2023-001CS","55097","6893.445","94.932","525.320","505.301","0"
